OBJECT_NAME,OBJECT_ID,EPOCH,MEAN_MOTION,ECCENTRICITY,INCLINATION,RA_OF_ASC_NODE,ARG_OF_PERICENTER,MEAN_ANOMALY,EPHEMERIS_TYPE,CLASSIFICATION_TYPE,NORAD_CAT_ID,ELEMENT_SET_NO,REV_AT_EPOCH,BSTAR,MEAN_MOTION_DOT,MEAN_MOTION_DDOT
GPS BIIR-5  (PRN 22),2000-040A,2026-05-19T14:44:31.517952,2.00557393,.01213777,54.8559,216.2973,302.3560,230.8914,0,U,26407,999,18937,0,.2E-6,0
GPS BIIR-8  (PRN 16),2003-005A,2026-05-19T16:27:01.978848,2.00562030,.01479748,54.8868,216.1014,53.0174,307.2353,0,U,27663,999,17073,0,.19E-6,0
GPS BIIR-11 (PRN 19),2004-009A,2026-05-17T23:21:37.218816,2.00555587,.01147717,54.8559,276.9074,171.7380,186.1469,0,U,28190,999,16233,0,-.3E-6,0
GPS BIIR-13 (PRN 02),2004-045A,2026-05-19T03:08:16.462176,2.00554454,.0169836,55.1533,326.0661,315.6449,222.9389,0,U,28474,999,15784,0,-.7E-6,0
GPS BIIRM-1 (PRN 17),2005-038A,2026-05-19T09:39:23.077152,2.00567559,.01277053,54.9026,274.3386,295.9756,41.1421,0,U,28874,999,15125,0,-.28E-6,0
GPS BIIRM-2 (PRN 31),2006-042A,2026-05-20T04:24:09.132192,2.00571375,.0106195,54.7064,152.4505,53.8185,25.3214,0,U,29486,999,14383,0,.56E-6,0
GPS BIIRM-3 (PRN 12),2006-052A,2026-05-18T00:06:02.449728,2.00556446,.0085788,54.9389,215.2027,90.5584,270.4981,0,U,29601,999,14280,0,.4E-6,0
GPS BIIRM-4 (PRN 15),2007-047A,2026-05-19T19:18:50.984928,2.00556553,.01658418,54.0753,81.2350,86.8448,275.0221,0,U,32260,999,13624,0,-.14E-6,0
GPS BIIRM-5 (PRN 29),2007-062A,2026-05-19T20:52:02.277120,2.00558255,.00351843,55.0554,275.2905,163.7724,9.9903,0,U,32384,999,13494,0,-.3E-6,0
GPS BIIRM-6 (PRN 07),2008-012A,2026-05-20T05:12:33.585696,2.00571625,.02105738,54.4928,151.0420,247.4737,110.3065,0,U,32711,999,13319,0,.56E-6,0
GPS BIIRM-8 (PRN 05),2009-043A,2026-05-19T22:48:23.816160,2.00555666,.00534281,56.1932,28.5608,82.0695,97.0936,0,U,35752,999,12279,0,-.82E-6,0
GPS BIIF-1  (PRN 25),2010-022A,2026-05-17T14:37:04.283040,2.00560837,.0126408,54.2733,209.7940,66.1106,340.3358,0,U,36585,999,11698,0,.49E-6,0
GPS BIIF-3  (PRN 24),2012-053A,2026-05-19T09:35:05.786592,2.00566974,.01788231,53.5802,144.7785,65.3880,296.4803,0,U,38833,999,9886,0,.56E-6,0
GPS BIIF-4  (PRN 27),2013-023A,2026-05-19T06:22:24.492000,2.00563554,.01418027,54.5277,270.1514,50.8716,310.3655,0,U,39166,999,9530,0,-.25E-6,0
GPS BIIF-5  (PRN 30),2014-008A,2026-05-20T06:20:07.967040,2.00557937,.00841326,53.6495,150.4585,230.7604,128.5121,0,U,39533,999,8912,0,.54E-6,0
GPS BIIF-6  (PRN 06),2014-026A,2026-05-19T13:00:51.909408,2.00563006,.00385154,56.5117,332.6324,326.8833,32.8887,0,U,39741,999,8796,0,-.73E-6,0
GPS BIIF-7  (PRN 09),2014-045A,2026-05-20T03:10:15.945600,2.00556445,.00322907,55.3358,89.5822,118.5671,241.7267,0,U,40105,999,8551,0,.3E-7,0
GPS BIIF-8  (PRN 03),2014-068A,2026-05-20T00:06:12.727008,2.00574345,.0066232,56.9688,32.0407,69.5799,291.1702,0,U,40294,999,8464,0,-.78E-6,0
GPS BIIF-9  (PRN 26),2015-013A,2026-05-20T03:22:35.153760,2.00553030,.01090372,53.1703,205.3377,40.0219,320.8549,0,U,40534,999,8126,0,.2E-6,0
GPS BIIF-10 (PRN 08),2015-033A,2026-05-18T19:17:41.601408,2.00557665,.0115012,54.0064,268.2976,30.0973,330.5439,0,U,40730,999,7940,0,-.23E-6,0
GPS BIIF-11 (PRN 10),2015-062A,2026-05-19T20:35:57.245280,2.00567065,.01113713,56.9411,31.9026,231.3358,127.7022,0,U,41019,999,7726,0,-.78E-6,0
GPS BIIF-12 (PRN 32),2016-007A,2026-05-19T22:44:16.109088,2.00552906,.00960742,55.5075,90.5786,247.2890,111.6621,0,U,41328,999,7527,0,.5E-7,0
GPS BIII-1  (PRN 04),2018-109A,2026-05-20T06:24:53.828352,2.00560156,.00379455,55.6661,93.2874,198.6335,285.8039,0,U,43873,999,5451,0,.1E-6,0
GPS BIII-2  (PRN 18),2019-056A,2026-05-19T23:18:01.052928,2.00569191,.0060644,55.6508,332.2636,197.3914,335.8838,0,U,44506,999,4950,0,-.75E-6,0
GPS BIII-3  (PRN 23),2020-041A,2026-05-19T13:54:37.867680,2.00559055,.00628312,56.6519,30.0532,204.8599,345.4759,0,U,45854,999,4346,0,-.78E-6,0
GPS BIII-4  (PRN 14),2020-078A,2026-05-19T14:06:37.941696,2.00564748,.00722656,53.9834,211.9386,206.3521,325.4222,0,U,46826,999,4093,0,.23E-6,0
GPS BIII-5  (PRN 11),2021-054A,2026-05-17T08:16:30.758016,2.00570739,.0024566,55.1876,333.6992,229.1389,308.8619,0,U,48859,999,3613,0,-.68E-6,0
GPS BIII-6  (PRN 28),2023-009A,2026-05-19T12:58:02.448768,2.00573337,.00061154,55.1178,149.6447,315.4942,45.7388,0,U,55268,999,2467,0,.59E-6,0
GPS BIII-7  (PRN 01),2024-242A,2026-05-19T16:11:02.790240,2.00570769,.00172774,54.8610,335.3368,3.4958,177.0470,0,U,62339,999,1068,0,-.78E-6,0
GPS BIII-8  (PRN 21),2025-116A,2026-05-19T10:02:30.310368,2.00577638,.00084894,55.2165,32.2881,335.9711,202.0396,0,U,64202,999,729,0,-.78E-6,0
GPS BIII-9  (PRN 20),2026-017A,2026-05-19T18:42:16.240032,2.00571618,.00227938,55.0711,89.8949,256.0652,103.6488,0,U,67588,999,43104,0,.2E-7,0
